STARLINK-30848
1 58240U 23171L   26061.16668981  .01320540  00000+0  50873-1 0  9991
2 58240  43.0015 327.5028 0001849 276.2077 179.2008 15.22963512  5664
